AMC-7 (GE-7)            
1 26495U 00054B   17083.86804250  .00000075  00000-0  00000-0 0  9999
2 26495   0.0432  81.9415 0001943 237.1581  40.8781  1.00271641 60443
NSS-11 (AAP-1)          
1 26554U 00059A   17084.90107337 -.00000359  00000-0  00000-0 0  9994
2 26554   0.0145 105.4558 0001559 288.9827 221.6924  1.00272320  7512
N-SAT-110 (JCSAT-110)   
1 26559U 00060A   17084.95066920 -.00000365  00000-0  00000-0 0  9995
2 26559   0.0121 146.9387 0001498 312.6033 176.3390  1.00270682  7485
AMC-6 (GE-6)            
1 26580U 00067A   17084.53520286 -.00000285  00000-0  00000-0 0  9991
2 26580   0.0140 158.7598 0001644 188.8759 321.2244  1.00268292 60174
INTELSAT 12 (IS-12)     
1 26590U 00068A   17084.91367859  .00000123  00000-0  00000-0 0  9990
2 26590   0.3076  94.0470 0002505 231.4347 231.9717  1.00273124 17929
INTELSAT 1R (IS-1R)     
1 26608U 00072A   17084.60117553  .00000052  00000-0  00000-0 0  9996
2 26608   0.1473  91.2492 0002080 191.5059 352.6234  0.99990701  7529
ANIK F1                 
1 26624U 00076A   17083.79135507 -.00000087  00000-0  00000-0 0  9995
2 26624   0.0264 132.3463 0000436 279.7474 307.9023  1.00271714  9331
ASTRA 2D                
1 26638U 00081A   17084.52185093  .00000038  00000-0  00000-0 0  9998
2 26638   3.4889  70.4187 0001337 279.5725  80.7558  1.00273253 19115
AMC-8 (GE-8)            
1 26639U 00081B   17084.60603742  .00000091  00000-0  00000-0 0  9993
2 26639   0.0286  70.4372 0002719 305.2020 246.7551  1.00271216 59552
SKYNET 4F               
1 26695U 01005B   17084.16377698 -.00000252  00000-0  00000-0 0  9991
2 26695   8.8022  37.2218 0003168 334.4979 196.0570  1.00269935 59074
EUTELSAT 33C            
1 26719U 01011A   17084.85673105  .00000142  00000-0  00000-0 0  9990
2 26719   0.0649   3.9045 0005333 358.4811 162.5956  1.00271505 58751
INTELSAT 10 (IS-10)     
1 26766U 01019A   17084.91367859  .00000114  00000-0  00000-0 0  9992
2 26766   1.3421  85.5592 0002099 246.0861 228.3095  1.00270916 11840
INTELSAT 901 (IS-901)   
1 26824U 01024A   17084.21270512 -.00000154  00000-0  00000-0 0  9990
2 26824   0.0121 253.6150 0002658 110.9741 236.8292  1.00271253 57795
ASTRA 2C                
1 26853U 01025A   17084.90881649  .00000033  00000-0  00000-0 0  9993
2 26853   0.2232  90.5278 0003217 274.1336 206.3365  1.00272219 11264
ARTEMIS                 
1 26863U 01029A   17084.74561885 -.00000370  00000-0  00000-0 0  9992
2 26863  12.6441  33.9244 0001842 354.1318 186.7341  1.00277255 10358
INTELSAT 902 (IS-902)   
1 26900U 01039A   17084.90395439  .00000019  00000-0  00000-0 0  9992
2 26900   0.0209 168.8435 0003208 211.8218 190.2663  1.00272752 56926
EUTELSAT 12 WEST B      
1 26927U 01042A   17084.89193671 -.00000114  00000-0  00000-0 0  9994
2 26927   0.0607   3.6295 0006172 354.8092 133.6767  1.00272033 56724
DIRECTV 4S              
1 26985U 01052A   17084.41183116 -.00000126  00000-0  00000-0 0  9993
2 26985   0.0176 171.7560 0002126 208.5981 209.7832  1.00272013 17529
INSAT-3C                
1 27298U 02002A   17084.94731903 -.00000271  00000-0  00000-0 0  9999
2 27298   0.4475  91.9797 0005883 223.1725 302.9993  1.00270159 55615
ECHOSTAR 7              
1 27378U 02006A   17084.50011880 -.00000013  00000-0  00000-0 0  9993
2 27378   0.0165 186.3375 0000892 213.3779 204.6481  1.00269678 55267
INTELSAT 904 (IS-904)   
1 27380U 02007A   17084.64519458  .00000123  00000-0  00000-0 0  9997
2 27380   0.0242 130.5298 0001511 346.6587 343.3614  1.00272486 55290
TDRS 9                  
1 27389U 02011A   17084.89194434 -.00000109  00000-0  00000-0 0  9996
2 27389   5.0792  80.1224 0022090 246.3965 165.9115  1.00271077 56654
JCSAT 2A                
1 27399U 02015A   17084.81405534 -.00000320  00000-0  00000-0 0  9994
2 27399   0.3020  93.3375 0001449 174.7730 344.4424  1.00272242 55100
ASTRA 3A                
1 27400U 02015B   17084.81388196 -.00000290  00000-0  00000-0 0  9997
2 27400   3.6541  69.1610 0001869 299.7387  60.5651  1.00269357 54933
INTELSAT 903 (IS-903)   
1 27403U 02016A   17084.77756366 -.00000252  00000-0  00000-0 0  9992
2 27403   0.0229 171.7591 0002894 200.0201  57.0427  1.00267882 11876
NSS-7                   
1 27414U 02019A   17084.78017446 -.00000168  00000-0  00000-0 0  9993
2 27414   1.7220  83.4739 0003049 293.7984  66.9764  1.00270771 54770
DIRECTV 5 (TEMPO 1)     
1 27426U 02023A   17083.79909038 -.00000069  00000-0  00000-0 0  9998
2 27426   0.0144 189.5559 0003327 179.1472 351.2947  1.00271934 54535
INTELSAT 905 (IS-905)   
1 27438U 02027A   17084.93867532 -.00000198  00000-0  00000-0 0  9997
2 27438   0.0163 229.5179 0002457 116.9811 150.4944  1.00271137 17586
EXPRESS-A4              
1 27441U 02029A   17084.84181661 -.00000252  00000-0  00000-0 0  9996
2 27441   5.9211  57.0447 0001363   3.9798 210.9760  1.00275171 54170
GALAXY 3C (G-3C)        
1 27445U 02030A   17083.75734799 -.00000163  00000-0  00000-0 0  9998
2 27445   0.0253 278.0521 0001111  95.6018 346.3410  1.00270115 54155
EUTELSAT 5 WEST A       
1 27460U 02035A   17084.50515322 -.00000056  00000-0  00000-0 0  9994
2 27460   0.0201  35.2718 0005341 326.5404 358.1897  1.00270356 53831
N-STAR C                
1 27461U 02035B   17084.81405534 -.00000319  00000-0  00000-0 0  9994
2 27461   4.4774  65.2629 0003332 299.1006 248.1397  1.00270315 53861
ECHOSTAR 8              
1 27501U 02039A   17084.54006495 -.00000255  00000-0  00000-0 0  9995
2 27501   0.9147  88.8223 0002874 282.1360 289.7479  1.00272652 18844
EUTELSAT 12 WEST A      
1 27508U 02040A   17084.59104511 -.00000258  00000-0  00000-0 0  9990
2 27508   0.0688 359.1729 0007121  10.1893 350.6437  1.00271011 53408
METEOSAT-8 (MSG-1)      
1 27509U 02040B   17084.64836316  .00000133  00000-0  00000-0 0  9993
2 27509   4.6964  58.6479 0001111 180.5461 218.8182  1.00267862 53462
INTELSAT 906 (IS-906)   
1 27513U 02041A   17084.88277568  .00000001  00000-0  00000-0 0  9997
2 27513   0.0047 191.0960 0003000 188.1790 186.1593  1.00271757 53241
KODAMA (DRTS)           
1 27516U 02042B   17084.91985912 -.00000249  00000-0  00000-0 0  9999
2 27516   4.8930  62.5329 0003316 310.1898 232.7253  1.00273436 12112
KALPANA-1 (METSAT 1)    
1 27525U 02043A   17084.44290108 -.00000084  00000-0  00000-0 0  9991
2 27525   6.2118  55.7733 0014609 236.1765 123.8169  1.00271525 53260
HISPASAT 1D             
1 27528U 02044A   17084.89150983 -.00000229  00000-0  00000-0 0  9991
2 27528   0.0496 324.9538 0005229  28.1019 121.4059  1.00273333  9023
TDRS 10                 
1 27566U 02055A   17084.13995681  .00000072  00000-0  00000-0 0  9999
2 27566   4.8902  58.7748 0011214 236.8264 123.2599  1.00277053 52430
NSS-6                   
1 27603U 02057A   17084.88028252 -.00000283  00000-0  00000-0 0  9991
2 27603   0.0157 122.5512 0001936 221.1366 251.7404  1.00271900 52304
NIMIQ 2                 
1 27632U 02062A   17084.53183001  .00000067  00000-0  00000-0 0  9994
2 27632   1.8197  82.2899 0006445 229.9255 130.7761  0.99545699 10416
INTELSAT 907 (IS-907)   
1 27683U 03007A   17084.56748014 -.00000215  00000-0  00000-0 0  9990
2 27683   0.0114 217.8308 0002665 147.7088 354.4562  1.00271981 51652
INSAT-3A                
1 27714U 03013A   17084.60624962  .00000101  00000-0  00000-0 0  9995
2 27714   0.9781  88.3794 0015640 235.5492 302.9027  0.99801616 51080
GALAXY 12 (G-12)        
1 27715U 03013B   17084.60117553  .00000046  00000-0  00000-0 0  9997
2 27715   0.0135 177.6388 0001809 199.8387 253.1673  1.00273427 18345
ASIASAT 4               
1 27718U 03014A   17084.61575965 -.00000373  00000-0  00000-0 0  9991
2 27718   0.0131 153.6969 0002129  88.2240 285.0939  1.00269826 51128
HELLAS-SAT 2            
1 27811U 03020A   17084.97334278  .00000139  00000-0  00000-0 0  9990
2 27811   0.0235 181.2008 0003700 179.0285 212.7886  1.00267914  9062
AMC-9 (GE-12)           
1 27820U 03024A   17084.46816177 -.00000229  00000-0  00000-0 0  9992
2 27820   0.0344 284.3270 0002769  74.5881 269.7147  1.00271467 50532
THURAYA-2               
1 27825U 03026A   17082.60767244  .00000123  00000-0  00000-0 0  9995
2 27825   4.8425  28.7958 0004867 325.7298  89.5164  1.00275198 50538
OPTUS C1                
1 27831U 03028B   17084.86089921 -.00000161  00000-0  00000-0 0  9996
2 27831   0.0390 150.1665 0002229 220.5418 278.7229  1.00271963 19260
ECHOSTAR 12 (RAINBOW 1) 
1 27852U 03033A   17084.53520286 -.00000295  00000-0  00000-0 0  9991
2 27852   0.0182 172.8467 0001143 221.6543 280.1506  1.00271167 50185
GALAXY 23 (G-23)        
1 27854U 03034A   17084.60117553 -.00000000  00000-0  00000-0 0  9995
2 27854   0.0081  99.2145 0003159 284.2972 255.1535  1.00272424 49943
EUTELSAT 33A            
1 27948U 03043A   17084.85673105  .00000141  00000-0  00000-0 0  9991
2 27948   2.2020  78.6298 0002113 230.8470 213.3038  1.00269804 11685
GALAXY 13 (HORIZONS-1)  
1 27954U 03044A   17084.60117553  .00000035  00000-0  00000-0 0  9994
2 27954   0.0041 189.8590 0000780 139.0219 303.7552  1.00272830 12780
ZHONGXING-20            
1 28082U 03052A   17083.75337201 -.00000334  00000-0  00000-0 0  9998
2 28082   3.3412  71.7097 0005593 276.6839 208.3947  1.00267657 48952
YAMAL 202               
1 28089U 03053A   17084.97960638  .00000106  00000-0  00000-0 0  9993
2 28089   0.0563 101.5771 0003873 269.6217 214.0183  1.00274431 48888
AMOS-2                  
1 28132U 03059A   17084.89215017 -.00000049  00000-0  00000-0 0  9990
2 28132   0.5505  90.3545 0003561 273.9040 136.3378  1.00270064 48541
EXPRESS-AM22 (SESAT 2)  
1 28134U 03060A   17084.94993622 -.00000150  00000-0  00000-0 0  9998
2 28134   0.2755  90.2541 0000242 340.9861 174.4156  1.00272152 48481
AMC-10 (GE-10)          
1 28154U 04003A   17084.60624962  .00000075  00000-0  00000-0 0  9994
2 28154   0.0186 185.6067 0001762 218.0751 222.8203  1.00268499 48112
